{
    "links": {
        "self": "http://www.neowsapp.com/rest/v1/neo/3781880?api_key=iIulBulltgU6a56xZRHN4H3l9WmuAYTsLGpBGhQ2"
    },
    "id": "3781880",
    "neo_reference_id": "3781880",
    "name": "(2017 SP14)",
    "designation": "2017 SP14",
    "nasa_jpl_url": "http://ssd.jpl.nasa.gov/sbdb.cgi?sstr=3781880",
    "absolute_magnitude_h": 25.5,
    "estimated_diameter": {
        "kilometers": {
            "estimated_diameter_min": 0.0211132445,
            "estimated_diameter_max": 0.0472106499
        },
        "meters": {
            "estimated_diameter_min": 21.113244479,
            "estimated_diameter_max": 47.2106498806
        },
        "miles": {
            "estimated_diameter_min": 0.0131191578,
            "estimated_diameter_max": 0.0293353287
        },
        "feet": {
            "estimated_diameter_min": 69.2691770164,
            "estimated_diameter_max": 154.8905885541
        }
    },
    "is_potentially_hazardous_asteroid": false,
    "close_approach_data": [
        {
            "close_approach_date": "2012-11-03",
            "close_approach_date_full": "2012-Nov-03 14:17",
            "epoch_date_close_approach": 1351952220000,
            "relative_velocity": {
                "kilometers_per_second": "13.516961143",
                "kilometers_per_hour": "48661.0601149688",
                "miles_per_hour": "30236.0903808816"
            },
            "miss_distance": {
                "astronomical": "0.3322365453",
                "lunar": "129.2400161217",
                "kilometers": "49701879.513038511",
                "miles": "30883315.8510170118"
            },
            "orbiting_body": "Earth"
        },
        {
            "close_approach_date": "2017-10-04",
            "close_approach_date_full": "2017-Oct-04 03:31",
            "epoch_date_close_approach": 1507087860000,
            "relative_velocity": {
                "kilometers_per_second": "6.7102817945",
                "kilometers_per_hour": "24157.0144600272",
                "miles_per_hour": "15010.2293460097"
            },
            "miss_distance": {
                "astronomical": "0.06660724",
                "lunar": "25.91021636",
                "kilometers": "9964301.2305788",
                "miles": "6191529.67963544"
            },
            "orbiting_body": "Earth"
        },
        {
            "close_approach_date": "2022-08-31",
            "close_approach_date_full": "2022-Aug-31 07:00",
            "epoch_date_close_approach": 1661929200000,
            "relative_velocity": {
                "kilometers_per_second": "13.7567436284",
                "kilometers_per_hour": "49524.2770621356",
                "miles_per_hour": "30772.4598223031"
            },
            "miss_distance": {
                "astronomical": "0.3387663704",
                "lunar": "131.7801180856",
                "kilometers": "50678727.439471048",
                "miles": "31490301.0062265424"
            },
            "orbiting_body": "Earth"
        }
    ],
    "orbital_data": {
        "orbit_id": "6",
        "orbit_determination_date": "2019-07-27 14:00:50",
        "first_observation_date": "2017-09-24",
        "last_observation_date": "2017-10-31",
        "data_arc_in_days": 37,
        "observations_used": 37,
        "orbit_uncertainty": "7",
        "minimum_orbit_intersection": ".0683738",
        "jupiter_tisserand_invariant": "3.910",
        "epoch_osculation": "2459000.5",
        "eccentricity": ".4162587074753961",
        "semi_major_axis": "1.829102714262815",
        "inclination": "8.820604210212283",
        "ascending_node_longitude": "191.9339697219746",
        "orbital_period": "903.5570278344496",
        "perihelion_distance": "1.067722782584037",
        "perihelion_argument": "181.3709003740066",
        "aphelion_distance": "2.590482645941593",
        "perihelion_time": "2458936.198806701601",
        "mean_anomaly": "25.61922366195677",
        "mean_motion": ".3984253222652809",
        "equinox": "J2000",
        "orbit_class": {
            "orbit_class_type": "AMO",
            "orbit_class_description": "Near-Earth asteroid orbits similar to that of 1221 Amor",
            "orbit_class_range": "1.017 AU < q (perihelion) < 1.3 AU"
        }
    },
    "is_sentry_object": false
}